NORAD_CAT_ID,OBJECT_NAME,OBJECT_TYPE,EPOCH,MEAN_MOTION,ECCENTRICITY,INCLINATION,RA_OF_ASC_NODE,ARG_OF_PERICENTER,MEAN_ANOMALY,BSTAR,MEAN_MOTION_DOT,MEAN_MOTION_DDOT,TLE_LINE0,TLE_LINE1,TLE_LINE2,SEMIMAJOR_AXIS,PERIOD,APOGEE,PERIGEE,DECAYED
53790.0,STARLINK-4734,PAYLOAD,2022-11-27 14:00:01,15.08803886,0.0001584,53.2139,252.5031,51.792,339.6629,0.0012929,0.00020328,0.0,0 STARLINK-4734,1 53790U 22111T   22331.58334491  .00020328  00000-0  12929-2 0  9999,2 53790  53.2139 252.5031 0001584  51.7920 339.6629 15.08803886  1308,6917.991,95.44,540.952,538.76,0.0
53790.0,STARLINK-4734,PAYLOAD,2022-11-27 22:00:00,15.08835989,0.0001689,53.2139,251.0074,52.183,350.8254,-0.0013151,-0.00021155,0.0,0 STARLINK-4734,1 53790U 22111T   22331.91667824 -.00021155  00000-0 -13151-2 0  9994,2 53790  53.2139 251.0074 0001689  52.1830 350.8254 15.08835989  1308,6917.893,95.438,540.9259999999998,538.589,0.0
53790.0,STARLINK-4734,PAYLOAD,2022-11-28 00:00:00,15.08831195,0.0001747,53.2138,250.6338,50.3169,85.5888,-0.0010748,-0.00017349,0.0,0 STARLINK-4734,1 53790U 22111T   22332.00001157 -.00017349  00000-0 -10748-2 0  9995,2 53790  53.2138 250.6338 0001747  50.3169  85.5888 15.08831195 12071,6917.906999999997,95.438,540.981,538.564,0.0
53790.0,STARLINK-4734,PAYLOAD,2022-11-28 16:00:00,15.08828085,0.0001688,53.2137,247.6394,53.0744,106.0151,0.0033006,0.00052616,0.0,0 STARLINK-4734,1 53790U 22111T   22332.66667824  .00052616  00000-0  33006-2 0  9992,2 53790  53.2137 247.6394 0001688  53.0744 106.0151 15.08828085 12178,6917.917,95.438,540.95,538.614,0.0
53790.0,STARLINK-4734,PAYLOAD,2022-11-28 22:00:01,15.0887134,0.0001807,53.2139,246.518,52.3274,25.5168,-0.0014140999999999,-0.00022743,0.0,0 STARLINK-4734,1 53790U 22111T   22332.91668981 -.00022743  00000-0 -14141-2 0  9994,2 53790  53.2139 246.5180 0001807  52.3274  25.5168 15.08871340  1302,6917.785,95.436,540.9,538.4,0.0
53790.0,STARLINK-4734,PAYLOAD,2022-11-29 06:00:00,15.08857095,0.0001904,53.2138,245.0226,46.0973,43.312,-0.0010109,-0.00016348,0.0,0 STARLINK-4734,1 53790U 22111T   22333.25001157 -.00016348  00000-0 -10109-2 0  9992,2 53790  53.2138 245.0226 0001904  46.0973  43.3120 15.08857095 12264,6917.828,95.436,541.01,538.376,0.0
53790.0,STARLINK-4734,PAYLOAD,2022-11-29 14:00:01,15.08808293,0.0001761999999999,53.2141,243.5241,52.4481,48.6437,0.0018181,0.00028741,0.0,0 STARLINK-4734,1 53790U 22111T   22333.58335648  .00028741  00000-0  18181-2 0  9999,2 53790  53.2141 243.5241 0001762  52.4481  48.6437 15.08808293  1303,6917.977,95.44,541.061,538.623,0.0
53790.0,STARLINK-4734,PAYLOAD,2022-11-29 22:00:00,15.08844081,0.0001919,53.2142,242.0285,53.2982,59.2968,-0.0012312999999999,-0.00019833,0.0,0 STARLINK-4734,1 53790U 22111T   22333.91667824 -.00019833  00000-0 -12313-2 0  9995,2 53790  53.2142 242.0285 0001919  53.2982  59.2968 15.08844081  1307,6917.868,95.437,541.06,538.405,0.0
53790.0,STARLINK-4734,PAYLOAD,2022-11-30 14:00:01,15.08801431,0.0001757,53.2147,239.0345,53.6959,82.1592,0.0027747,0.00044101,0.0,0 STARLINK-4734,1 53790U 22111T   22334.58335648  .00044101  00000-0  27747-2 0  9996,2 53790  53.2147 239.0345 0001757  53.6959  82.1592 15.08801431 12462,6917.998000000001,95.44,541.0790000000002,538.648,0.0
53790.0,STARLINK-4734,PAYLOAD,2022-11-30 22:00:00,15.088712,0.000188,53.2159,237.5385,55.3707,91.9823,-0.0060034,-0.00094662,0.0,0 STARLINK-4734,1 53790U 22111T   22334.91667824 -.00094662  00000-0 -60034-2 0  9992,2 53790  53.2159 237.5385 0001880  55.3707  91.9823 15.08871200  1306,6917.785,95.436,540.951,538.349,0.0
53790.0,STARLINK-4734,PAYLOAD,2022-12-01 06:00:00,15.08850318,0.0001982,53.2151,236.0434,46.9168,112.0452,-0.0020147,-0.00032219,0.0,0 STARLINK-4734,1 53790U 22111T   22335.25001157 -.00032219  00000-0 -20147-2 0  9992,2 53790  53.2151 236.0434 0001982  46.9168 112.0452 15.08850318 12567,6917.849,95.437,541.085,538.3430000000002,0.0
53790.0,STARLINK-4734,PAYLOAD,2022-12-01 14:00:01,15.08808313,0.0001692,53.2145,234.5453,52.5668,117.9964,0.003285,0.00052336,0.0,0 STARLINK-4734,1 53790U 22111T   22335.58334491  .00052336  00000-0  32850-2 0  9992,2 53790  53.2145 234.5453 0001692  52.5668 117.9964 15.08808313  1300,6917.977,95.44,541.013,538.672,0.0
53790.0,STARLINK-4734,PAYLOAD,2022-12-01 22:00:00,15.088375400000002,0.0001814,53.2148,233.05,49.5209,132.6092,-0.00093386,-0.00015119,0.0,0 STARLINK-4734,1 53790U 22111T   22335.91667824 -.00015119  00000-0 -93386-3 0  9990,2 53790  53.2148 233.0500 0001814  49.5209 132.6092 15.08837540  1303,6917.888000000001,95.438,541.008,538.498,0.0
53790.0,STARLINK-4734,PAYLOAD,2022-12-02 06:00:00,15.08854722,0.0001835,53.2145,231.5538,47.5351,146.2052,-0.0019025,-0.00030451,0.0,0 STARLINK-4734,1 53790U 22111T   22336.25001157 -.00030451  00000-0 -19025-2 0  9992,2 53790  53.2145 231.5538 0001835  47.5351 146.2052 15.08854722 12718,6917.835,95.437,540.97,538.431,0.0
53790.0,STARLINK-4734,PAYLOAD,2022-12-02 14:00:01,15.08833391,0.0001761,53.2144,230.0559,53.7708,151.5458,0.0012783,0.00020111,0.0,0 STARLINK-4734,1 53790U 22111T   22336.58334491  .00020111  00000-0  12783-2 0  9992,2 53790  53.2144 230.0559 0001761  53.7708 151.5458 15.08833391  1308,6917.901,95.438,540.984,538.547,0.0
53790.0,STARLINK-4734,PAYLOAD,2022-12-02 22:00:00,15.08842246,0.0001946,53.2145,228.5609,53.4511,163.4652,-0.0015488,-0.00024855,0.0,0 STARLINK-4734,1 53790U 22111T   22336.91667824 -.00024855  00000-0 -15488-2 0  9994,2 53790  53.2145 228.5609 0001946  53.4511 163.4652 15.08842246  1308,6917.874,95.437,541.085,538.3919999999998,0.0
53790.0,STARLINK-4734,PAYLOAD,2022-12-03 08:00:01,15.08852633,0.000197,53.2141,226.6901,52.6479,268.7463,-0.0016984,-0.00027226,0.0,0 STARLINK-4734,1 53790U 22111T   22337.33334491 -.00027226  00000-0 -16984-2 0  9999,2 53790  53.2141 226.6901 0001970  52.6479 268.7463 15.08852633 12884,6917.842,95.437,541.07,538.344,0.0
53790.0,STARLINK-4734,PAYLOAD,2022-12-03 14:00:01,15.08827389,0.0001859,53.2141,225.5667,57.7172,182.3815,0.0017254,0.00027269,0.0,0 STARLINK-4734,1 53790U 22111T   22337.58334491  .00027269  00000-0  17254-2 0  9992,2 53790  53.2141 225.5667 0001859  57.7172 182.3815 15.08827389  1300,6917.919,95.438,541.07,538.498,0.0
53790.0,STARLINK-4734,PAYLOAD,2022-12-03 22:00:00,15.08838937,0.0001948,53.2141,224.0718,54.0124,197.6824,-0.0017474,-0.0002799,0.0,0 STARLINK-4734,1 53790U 22111T   22337.91667824 -.00027990  00000-0 -17474-2 0  9995,2 53790  53.2141 224.0718 0001948  54.0124 197.6824 15.08838937  1307,6917.884,95.438,541.096,538.401,0.0
53790.0,STARLINK-4734,PAYLOAD,2022-12-04 06:00:00,15.08836512,0.0001964,53.2138,222.5755,51.1283,212.1444,-0.00035093,-5.868e-05,0.0,0 STARLINK-4734,1 53790U 22111T   22338.25001157 -.00005868  00000-0 -35093-3 0  9992,2 53790  53.2138 222.5755 0001964  51.1283 212.1444 15.08836512 13018,6917.891,95.438,541.115,538.3969999999998,0.0
53790.0,STARLINK-4734,PAYLOAD,2022-12-04 14:00:01,15.08815391,0.0001866,53.2137,221.0775,57.7802,217.0882,0.0031488,0.00050149,0.0,0 STARLINK-4734,1 53790U 22111T   22338.58334491  .00050149  00000-0  31488-2 0  9991,2 53790  53.2137 221.0775 0001866  57.7802 217.0882 15.08815391  1304,6917.956,95.439,541.112,538.53,0.0
53790.0,STARLINK-4734,PAYLOAD,2022-12-04 22:00:00,15.08864013,0.0001982,53.2137,219.5827,54.1195,232.3361,-0.0028073,-0.0004472,0.0,0 STARLINK-4734,1 53790U 22111T   22338.91667824 -.00044720  00000-0 -28073-2 0  9993,2 53790  53.2137 219.5827 0001982  54.1195 232.3361 15.08864013  1306,6917.807,95.436,541.043,538.3009999999998,0.0
53790.0,STARLINK-4734,PAYLOAD,2022-12-05 06:00:00,15.08844475,0.0001943,53.2135,218.0862,50.3725,247.6895,-0.00049363,-8.137e-05,0.0,0 STARLINK-4734,1 53790U 22111T   22339.25001157 -.00008137  00000-0 -49363-3 0  9990,2 53790  53.2135 218.0862 0001943  50.3725 247.6895 15.08844475 13169,6917.8669999999975,95.437,541.076,538.388,0.0
53790.0,STARLINK-4734,PAYLOAD,2022-12-05 14:00:01,15.08818812,0.0001866,53.2136,216.5881,56.8787,252.8451,0.003298,0.00052561,0.0,0 STARLINK-4734,1 53790U 22111T   22339.58335648  .00052561  00000-0  32980-2 0  9995,2 53790  53.2136 216.5881 0001866  56.8787 252.8451 15.08818812  1302,6917.945,95.439,541.101,538.519,0.0
53790.0,STARLINK-4734,PAYLOAD,2022-12-05 15:48:46,15.08845381,0.0002216,53.2153,216.2496,56.6618,303.4586,-4.6521e-05,-1.029e-05,0.0,0 STARLINK-4734,1 53790U 22111T   22339.65886870 -.00001029  00000-0 -46521-4 0  9994,2 53790  53.2153 216.2496 0002216  56.6618 303.4586 15.08845381 14049,6917.864000000001,95.437,541.262,538.196,0.0
53790.0,STARLINK-4734,PAYLOAD,2022-12-06 01:21:04,15.08852768,0.0002043,53.215,214.465,57.5323,302.5866,-6.6931e-05,-1.354e-05,0.0,0 STARLINK-4734,1 53790U 22111T   22340.05630330 -.00001354  00000-0 -66931-4 0  9996,2 53790  53.2150 214.4650 0002043  57.5323 302.5866 15.08852768 13293,6917.840999999999,95.437,541.12,538.293,0.0
53790.0,STARLINK-4734,PAYLOAD,2022-12-06 09:18:00,15.08839856,0.0002019,53.215,212.9782,56.1184,304.0,6.110100000000001e-05,6.84e-06,0.0,0 STARLINK-4734,1 53790U 22111T   22340.38750551  .00000684  00000-0  61101-4 0  9997,2 53790  53.2150 212.9782 0002019  56.1184 304.0000 15.08839856 13341,6917.880999999999,95.438,541.143,538.349,0.0
53790.0,STARLINK-4734,PAYLOAD,2022-12-06 22:01:06,15.08825321,0.0002023,53.2153,210.5993,59.2684,300.8508,-0.00010034,-1.884e-05,0.0,0 STARLINK-4734,1 53790U 22111T   22340.91744210 -.00001884  00000-0 -10034-3 0  9994,2 53790  53.2153 210.5993 0002023  59.2684 300.8508 15.08825321 13424,6917.925,95.438,541.19,538.391,0.0
53790.0,STARLINK-4734,PAYLOAD,2022-12-07 01:11:53,15.08819736,0.000204,53.2155,210.0048,58.0402,302.0789,-3.7063e-05,-8.78e-06,0.0,0 STARLINK-4734,1 53790U 22111T   22341.04992468 -.00000878  00000-0 -37063-4 0  9993,2 53790  53.2155 210.0048 0002040  58.0402 302.0789 15.08819736 14256,6917.941999999999,95.439,541.219,538.396,0.0
